{
    "links": {
        "self": "http://www.neowsapp.com/rest/v1/neo/3648533?api_key=iIulBulltgU6a56xZRHN4H3l9WmuAYTsLGpBGhQ2"
    },
    "id": "3648533",
    "neo_reference_id": "3648533",
    "name": "(2013 SL19)",
    "designation": "2013 SL19",
    "nasa_jpl_url": "http://ssd.jpl.nasa.gov/sbdb.cgi?sstr=3648533",
    "absolute_magnitude_h": 22.5,
    "estimated_diameter": {
        "kilometers": {
            "estimated_diameter_min": 0.0840533402,
            "estimated_diameter_max": 0.1879489824
        },
        "meters": {
            "estimated_diameter_min": 84.0533402073,
            "estimated_diameter_max": 187.9489824394
        },
        "miles": {
            "estimated_diameter_min": 0.0522283081,
            "estimated_diameter_max": 0.1167860472
        },
        "feet": {
            "estimated_diameter_min": 275.7655606856,
            "estimated_diameter_max": 616.6305395464
        }
    },
    "is_potentially_hazardous_asteroid": false,
    "close_approach_data": [
        {
            "close_approach_date": "2013-10-10",
            "close_approach_date_full": "2013-Oct-10 15:02",
            "epoch_date_close_approach": 1381417320000,
            "relative_velocity": {
                "kilometers_per_second": "3.4806678251",
                "kilometers_per_hour": "12530.4041702958",
                "miles_per_hour": "7785.9058579263"
            },
            "miss_distance": {
                "astronomical": "0.3013499686",
                "lunar": "117.2251377854",
                "kilometers": "45081313.427126882",
                "miles": "28012229.2192876916"
            },
            "orbiting_body": "Earth"
        }
    ],
    "orbital_data": {
        "orbit_id": "11",
        "orbit_determination_date": "2017-04-06 08:44:37",
        "first_observation_date": "2013-09-23",
        "last_observation_date": "2013-11-02",
        "data_arc_in_days": 40,
        "observations_used": 38,
        "orbit_uncertainty": "7",
        "minimum_orbit_intersection": ".248647",
        "jupiter_tisserand_invariant": "3.070",
        "epoch_osculation": "2459000.5",
        "eccentricity": ".5575371440624478",
        "semi_major_axis": "2.813167335287315",
        "inclination": ".8086719644672694",
        "ascending_node_longitude": "327.5692929166975",
        "orbital_period": "1723.422568874213",
        "perihelion_distance": "1.244722053401459",
        "perihelion_argument": "55.82077975307498",
        "aphelion_distance": "4.381612617173171",
        "perihelion_time": "2458318.421516257999",
        "mean_anomaly": "142.4771025875094",
        "mean_motion": ".2088866691789709",
        "equinox": "J2000",
        "orbit_class": {
            "orbit_class_type": "AMO",
            "orbit_class_description": "Near-Earth asteroid orbits similar to that of 1221 Amor",
            "orbit_class_range": "1.017 AU < q (perihelion) < 1.3 AU"
        }
    },
    "is_sentry_object": false
}